STARLINK-5577           
1 55751U 23028L   26068.86151139  .00000480  00000+0  48002-4 0  9993
2 55751  69.9992 244.1117 0002156 271.7261  88.3651 14.98327635166067
SHIYAN-24C 03           
1 58652U 23206C   26068.89147317  .00001350  00000+0  11928-3 0  9993
2 58652  97.3969  41.7507 0002411  66.6237 293.5240 14.97896938120432
